{
  "type": "FeatureCollection",
  "features": [
    {
      "type": "Feature",
      "properties": {
        "norad_id": 33939,
        "name": "COSMOS 2251 DEB",
        "group": "cosmos-2251-debris",
        "lat": 69.43514246298915,
        "lon": 132.4195653294675,
        "alt_km": 558.1018169669733,
        "timestamp": "2025-12-11T18:59:46.468355+00:00",
        "meta_object_name": "COSMOS 2251 DEB",
        "meta_object_id": "1993-036EU",
        "meta_epoch": "2025-12-11T05:50:50.521056",
        "meta_mean_motion": 14.99715393,
        "meta_eccentricity": 0.00034042,
        "meta_inclination": 74.0065,
        "meta_ra_of_asc_node": 83.6722,
        "meta_arg_of_pericenter": 62.9999,
        "meta_mean_anomaly": 297.1535,
        "meta_ephemeris_type": 0,
        "meta_classification_type": "U",
        "meta_norad_cat_id": 33939,
        "meta_element_set_no": 999,
        "meta_rev_at_epoch": 88730,
        "meta_bstar": 0.0071413567,
        "meta_mean_motion_dot": 0.0008929,
        "meta_mean_motion_ddot": 0,
        "tle_line1": "1 33939U 93036EU  25345.24364029  .00089290  00000+0  71414-2 0  9993",
        "tle_line2": "2 33939  74.0065  83.6722 0003404  62.9999 297.1535 14.99715393887303"
      },
      "geometry": {
        "type": "Point",
        "coordinates": [
          132.4195653294675,
          69.43514246298915
        ]
      }
    },
    {
      "type": "Feature",
      "properties": {
        "norad_id": 33940,
        "name": "COSMOS 2251 DEB",
        "group": "cosmos-2251-debris",
        "lat": -12.065023955620328,
        "lon": 141.79586611656316,
        "alt_km": 705.5425878381575,
        "timestamp": "2025-12-11T18:59:46.468366+00:00",
        "meta_object_name": "COSMOS 2251 DEB",
        "meta_object_id": "1993-036EV",
        "meta_epoch": "2025-12-11T05:03:48.708288",
        "meta_mean_motion": 14.58768156,
        "meta_eccentricity": 0.00113857,
        "meta_inclination": 74.04,
        "meta_ra_of_asc_node": 146.4076,
        "meta_arg_of_pericenter": 226.0479,
        "meta_mean_anomaly": 313.9543,
        "meta_ephemeris_type": 0,
        "meta_classification_type": "U",
        "meta_norad_cat_id": 33940,
        "meta_element_set_no": 999,
        "meta_rev_at_epoch": 88571,
        "meta_bstar": 0.001807406,
        "meta_mean_motion_dot": 8.433e-05,
        "meta_mean_motion_ddot": 0,
        "tle_line1": "1 33940U 93036EV  25345.21098042  .00008433  00000+0  18074-2 0  9994",
        "tle_line2": "2 33940  74.0400 146.4076 0011385 226.0479 313.9543 14.58768156885710"
      },
      "geometry": {
        "type": "Point",
        "coordinates": [
          141.79586611656316,
          -12.065023955620328
        ]
      }
    },
    {
      "type": "Feature",
      "properties": {
        "norad_id": 33942,
        "name": "COSMOS 2251 DEB",
        "group": "cosmos-2251-debris",
        "lat": -68.54156767088224,
        "lon": 143.31139354686167,
        "alt_km": 775.6825282009831,
        "timestamp": "2025-12-11T18:59:46.468376+00:00",
        "meta_object_name": "COSMOS 2251 DEB",
        "meta_object_id": "1993-036EX",
        "meta_epoch": "2025-12-11T06:39:30.455712",
        "meta_mean_motion": 14.37985868,
        "meta_eccentricity": 0.00202453,
        "meta_inclination": 74.0367,
        "meta_ra_of_asc_node": 277.5216,
        "meta_arg_of_pericenter": 1.0969,
        "meta_mean_anomaly": 114.4135,
        "meta_ephemeris_type": 0,
        "meta_classification_type": "U",
        "meta_norad_cat_id": 33942,
        "meta_element_set_no": 999,
        "meta_rev_at_epoch": 88113,
        "meta_bstar": 0.00041561991,
        "meta_mean_motion_dot": 1.233e-05,
        "meta_mean_motion_ddot": 0,
        "tle_line1": "1 33942U 93036EX  25345.27743583  .00001233  00000+0  41562-3 0  9999",
        "tle_line2": "2 33942  74.0367 277.5216 0020245   1.0969 114.4135 14.37985868881137"
      },
      "geometry": {
        "type": "Point",
        "coordinates": [
          143.31139354686167,
          -68.54156767088224
        ]
      }
    },
    {
      "type": "Feature",
      "properties": {
        "norad_id": 33944,
        "name": "COSMOS 2251 DEB",
        "group": "cosmos-2251-debris",
        "lat": 44.036565274831744,
        "lon": 114.60724263136156,
        "alt_km": 752.7018933335385,
        "timestamp": "2025-12-11T18:59:46.468387+00:00",
        "meta_object_name": "COSMOS 2251 DEB",
        "meta_object_id": "1993-036EZ",
        "meta_epoch": "2025-12-11T07:12:29.524608",
        "meta_mean_motion": 14.37338951,
        "meta_eccentricity": 0.01121426,
        "meta_inclination": 74.0402,
        "meta_ra_of_asc_node": 311.5742,
        "meta_arg_of_pericenter": 51.5525,
        "meta_mean_anomaly": 60.3056,
        "meta_ephemeris_type": 0,
        "meta_classification_type": "U",
        "meta_norad_cat_id": 33944,
        "meta_element_set_no": 999,
        "meta_rev_at_epoch": 88007,
        "meta_bstar": 0.00056767228,
        "meta_mean_motion_dot": 1.795e-05,
        "meta_mean_motion_ddot": 0,
        "tle_line1": "1 33944U 93036EZ  25345.30034172  .00001795  00000+0  56767-3 0  9998",
        "tle_line2": "2 33944  74.0402 311.5742 0112142  51.5525  60.3056 14.37338951880076"
      },
      "geometry": {
        "type": "Point",
        "coordinates": [
          114.60724263136156,
          44.036565274831744
        ]
      }
    },
    {
      "type": "Feature",
      "properties": {
        "norad_id": 33945,
        "name": "COSMOS 2251 DEB",
        "group": "cosmos-2251-debris",
        "lat": -61.24251494098514,
        "lon": -83.44952410103876,
        "alt_km": 785.9910734234436,
        "timestamp": "2025-12-11T18:59:46.468398+00:00",
        "meta_object_name": "COSMOS 2251 DEB",
        "meta_object_id": "1993-036FA",
        "meta_epoch": "2025-12-11T05:54:46.546848",
        "meta_mean_motion": 14.34599349,
        "meta_eccentricity": 0.00218429,
        "meta_inclination": 74.0297,
        "meta_ra_of_asc_node": 309.0034,
        "meta_arg_of_pericenter": 35.8074,
        "meta_mean_anomaly": 324.4538,
        "meta_ephemeris_type": 0,
        "meta_classification_type": "U",
        "meta_norad_cat_id": 33945,
        "meta_element_set_no": 999,
        "meta_rev_at_epoch": 87994,
        "meta_bstar": 0.00024958487,
        "meta_mean_motion_dot": 6.81e-06,
        "meta_mean_motion_ddot": 0,
        "tle_line1": "1 33945U 93036FA  25345.24637207  .00000681  00000+0  24958-3 0  9990",
        "tle_line2": "2 33945  74.0297 309.0034 0021842  35.8074 324.4538 14.34599349879945"
      },
      "geometry": {
        "type": "Point",
        "coordinates": [
          -83.44952410103876,
          -61.24251494098514
        ]
      }
    },
    {
      "type": "Feature",
      "properties": {
        "norad_id": 33948,
        "name": "COSMOS 2251 DEB",
        "group": "cosmos-2251-debris",
        "lat": 37.90212628812853,
        "lon": 113.99686227562471,
        "alt_km": 777.2126668405635,
        "timestamp": "2025-12-11T18:59:46.468408+00:00",
        "meta_object_name": "COSMOS 2251 DEB",
        "meta_object_id": "1993-036FD",
        "meta_epoch": "2025-12-11T06:38:24.422784",
        "meta_mean_motion": 14.35626926,
        "meta_eccentricity": 0.00226527,
        "meta_inclination": 74.0355,
        "meta_ra_of_asc_node": 307.8184,
        "meta_arg_of_pericenter": 24.0671,
        "meta_mean_anomaly": 336.1535,
        "meta_ephemeris_type": 0,
        "meta_classification_type": "U",
        "meta_norad_cat_id": 33948,
        "meta_element_set_no": 999,
        "meta_rev_at_epoch": 88002,
        "meta_bstar": 0.00034901726,
        "meta_mean_motion_dot": 9.83e-06,
        "meta_mean_motion_ddot": 0,
        "tle_line1": "1 33948U 93036FD  25345.27667156  .00000983  00000+0  34902-3 0  9997",
        "tle_line2": "2 33948  74.0355 307.8184 0022652  24.0671 336.1535 14.35626926880029"
      },
      "geometry": {
        "type": "Point",
        "coordinates": [
          113.99686227562471,
          37.90212628812853
        ]
      }
    },
    {
      "type": "Feature",
      "properties": {
        "norad_id": 33971,
        "name": "COSMOS 2251 DEB",
        "group": "cosmos-2251-debris",
        "lat": -13.332162559646395,
        "lon": 79.37824262985846,
        "alt_km": 776.1604343790414,
        "timestamp": "2025-12-11T18:59:46.468419+00:00",
        "meta_object_name": "COSMOS 2251 DEB",
        "meta_object_id": "1993-036FE",
        "meta_epoch": "2025-12-11T05:20:37.379040",
        "meta_mean_motion": 14.39720868,
        "meta_eccentricity": 0.00184849,
        "meta_inclination": 74.0251,
        "meta_ra_of_asc_node": 256.5366,
        "meta_arg_of_pericenter": 357.2507,
        "meta_mean_anomaly": 129.3915,
        "meta_ephemeris_type": 0,
        "meta_classification_type": "U",
        "meta_norad_cat_id": 33971,
        "meta_element_set_no": 999,
        "meta_rev_at_epoch": 88117,
        "meta_bstar": 0.00043667902,
        "meta_mean_motion_dot": 1.344e-05,
        "meta_mean_motion_ddot": 0,
        "tle_line1": "1 33971U 93036FE  25345.22265485  .00001344  00000+0  43668-3 0  9998",
        "tle_line2": "2 33971  74.0251 256.5366 0018484 357.2507 129.3915 14.39720868881174"
      },
      "geometry": {
        "type": "Point",
        "coordinates": [
          79.37824262985846,
          -13.332162559646395
        ]
      }
    }
  ]
}